*******************************************************************************
 Revised: April 12, 2021       Solar System Barycenter                        0

 Dynamical point 
 ---------------
 The center of mass for the solar system. See object 10 for Sun ephemeris.
*******************************************************************************


*******************************************************************************
Ephemeris / WWW_USER Wed Feb  2 11:01:19 2022 Pasadena, USA      / Horizons    
*******************************************************************************
Target body name: Solar System Barycenter (0)     {source: DE441}
Center body name: Sun (10)                        {source: DE441}
Center-site name: BODYCENTRIC
*******************************************************************************
Start time      : A.D. 2006-Jan-01 00:09:00.0000 UT      
Stop  time      : A.D. 2006-Dec-31 23:59:00.0000 UT      
Step-size       : 40 minutes
*******************************************************************************
Target pole/equ : MARSIAU                         {East-longitude positive}
Target radii    : 696000.0 x 696000.0 x 696000.0 k{Equator, meridian, pole}    
Center geodetic : 0.00000000,0.00000000,0.0000000 {E-lon(deg),Lat(deg),Alt(km)}
Center cylindric: 0.00000000,0.00000000,0.0000000 {E-lon(deg),Dxy(km),Dz(km)}
Center pole/equ : IAU_SUN                         {East-longitude positive}
Center radii    : 696000.0 x 696000.0 x 696000.0 k{Equator, meridian, pole}    
Target primary  : Sun
Vis. interferer : None
Rel. light bend : Sun                             {source: DE441}
Rel. lght bnd GM: 1.3271E+11 km^3/s^2                                          
Atmos refraction: NO (AIRLESS)
RA format       : HMS
Time format     : CAL 
EOP file        : eop.220131.p220426                                           
EOP coverage    : DATA-BASED 1962-JAN-20 TO 2022-JAN-31. PREDICTS-> 2022-APR-25
Units conversion: 1 au= 149597870.700 km, c= 299792.458 km/s, 1 day= 86400.0 s 
Table cut-offs 1: Elevation (-90.0deg=NO ),Airmass     n.a.    , Daylight (NO )
Table cut-offs 2: Solar elongation (  0.0,180.0=NO ),Local Hour Angle( 0.0=NO )
Table cut-offs 3: RA/DEC angular rate (     0.0=NO )                           
*******************************************************************************
 Date__(UT)__HR:MN     R.A._____(ICRF)_____DEC             delta      deldot
****************************************************************************
$$SOE
 2006-Sep-13 23:29     15 17 17.83 -16 47 20.0  0.00465515854949   0.0013667
 2006-Sep-14 00:09     15 17 18.37 -16 47 22.2  0.00465518047501   0.0013667
 2006-Sep-14 00:49     15 17 18.92 -16 47 24.4  0.00465520240050   0.0013667
 2006-Sep-14 01:29     15 17 19.47 -16 47 26.6  0.00465522432597   0.0013667
 2006-Sep-14 02:09     15 17 20.02 -16 47 28.8  0.00465524625142   0.0013667
 2006-Sep-14 02:49     15 17 20.56 -16 47 31.0  0.00465526817685   0.0013667
 2006-Sep-14 03:29     15 17 21.11 -16 47 33.2  0.00465529010225   0.0013667
 2006-Sep-14 04:09     15 17 21.66 -16 47 35.4  0.00465531202763   0.0013667
 2006-Sep-14 04:49     15 17 22.21 -16 47 37.6  0.00465533395299   0.0013667
 2006-Sep-14 05:29     15 17 22.75 -16 47 39.8  0.00465535587832   0.0013667
 2006-Sep-14 06:09     15 17 23.30 -16 47 42.0  0.00465537780363   0.0013667
 2006-Sep-14 06:49     15 17 23.85 -16 47 44.2  0.00465539972890   0.0013667
 2006-Sep-14 07:29     15 17 24.40 -16 47 46.4  0.00465542165416   0.0013667
 2006-Sep-14 08:09     15 17 24.94 -16 47 48.6  0.00465544357938   0.0013667
 2006-Sep-14 08:49     15 17 25.49 -16 47 50.8  0.00465546550458   0.0013667
 2006-Sep-14 09:29     15 17 26.04 -16 47 53.0  0.00465548742974   0.0013666
 2006-Sep-14 10:09     15 17 26.59 -16 47 55.2  0.00465550935488   0.0013666
 2006-Sep-14 10:49     15 17 27.14 -16 47 57.4  0.00465553127999   0.0013666
 2006-Sep-14 11:29     15 17 27.68 -16 47 59.6  0.00465555320507   0.0013666
 2006-Sep-14 12:09     15 17 28.23 -16 48 01.8  0.00465557513012   0.0013666
 2006-Sep-14 12:49     15 17 28.78 -16 48 04.0  0.00465559705513   0.0013666
 2006-Sep-14 13:29     15 17 29.33 -16 48 06.2  0.00465561898012   0.0013666
 2006-Sep-14 14:09     15 17 29.87 -16 48 08.4  0.00465564090507   0.0013666
 2006-Sep-14 14:49     15 17 30.42 -16 48 10.6  0.00465566282998   0.0013666
 2006-Sep-14 15:29     15 17 30.97 -16 48 12.8  0.00465568475487   0.0013666
 2006-Sep-14 16:09     15 17 31.52 -16 48 14.9  0.00465570667972   0.0013666
 2006-Sep-14 16:49     15 17 32.06 -16 48 17.1  0.00465572860453   0.0013666
 2006-Sep-14 17:29     15 17 32.61 -16 48 19.3  0.00465575052931   0.0013666
 2006-Sep-14 18:09     15 17 33.16 -16 48 21.5  0.00465577245405   0.0013666
 2006-Sep-14 18:49     15 17 33.71 -16 48 23.7  0.00465579437876   0.0013666
 2006-Sep-14 19:29     15 17 34.25 -16 48 25.9  0.00465581630342   0.0013666
 2006-Sep-14 20:09     15 17 34.80 -16 48 28.1  0.00465583822805   0.0013666
 2006-Sep-14 20:49     15 17 35.35 -16 48 30.3  0.00465586015265   0.0013666
 2006-Sep-14 21:29     15 17 35.90 -16 48 32.5  0.00465588207720   0.0013666
 2006-Sep-14 22:09     15 17 36.45 -16 48 34.7  0.00465590400171   0.0013666
 2006-Sep-14 22:49     15 17 36.99 -16 48 36.9  0.00465592592618   0.0013666
 2006-Sep-14 23:29     15 17 37.54 -16 48 39.1  0.00465594785061   0.0013666
 2006-Sep-15 00:09     15 17 38.09 -16 48 41.3  0.00465596977500   0.0013666
 2006-Sep-15 00:49     15 17 38.64 -16 48 43.5  0.00465599169935   0.0013666
 2006-Sep-15 01:29     15 17 39.18 -16 48 45.7  0.00465601362365   0.0013666
 2006-Sep-15 02:09     15 17 39.73 -16 48 47.9  0.00465603554791   0.0013666
 2006-Sep-15 02:49     15 17 40.28 -16 48 50.1  0.00465605747213   0.0013666
 2006-Sep-15 03:29     15 17 40.83 -16 48 52.3  0.00465607939631   0.0013666
 2006-Sep-15 04:09     15 17 41.37 -16 48 54.5  0.00465610132043   0.0013666
 2006-Sep-15 04:49     15 17 41.92 -16 48 56.7  0.00465612324452   0.0013666
 2006-Sep-15 05:29     15 17 42.47 -16 48 58.9  0.00465614516855   0.0013666
 2006-Sep-15 06:09     15 17 43.02 -16 49 01.0  0.00465616709254   0.0013666
 2006-Sep-15 06:49     15 17 43.57 -16 49 03.2  0.00465618901648   0.0013666
 2006-Sep-15 07:29     15 17 44.11 -16 49 05.4  0.00465621094038   0.0013666
 2006-Sep-15 08:09     15 17 44.66 -16 49 07.6  0.00465623286422   0.0013666
 2006-Sep-15 08:49     15 17 45.21 -16 49 09.8  0.00465625478802   0.0013666
 2006-Sep-15 09:29     15 17 45.76 -16 49 12.0  0.00465627671177   0.0013666
 2006-Sep-15 10:09     15 17 46.30 -16 49 14.2  0.00465629863546   0.0013666
 2006-Sep-15 10:49     15 17 46.85 -16 49 16.4  0.00465632055911   0.0013666
 2006-Sep-15 11:29     15 17 47.40 -16 49 18.6  0.00465634248270   0.0013665
 2006-Sep-15 12:09     15 17 47.95 -16 49 20.8  0.00465636440625   0.0013665
 2006-Sep-15 12:49     15 17 48.49 -16 49 23.0  0.00465638632974   0.0013665
 2006-Sep-15 13:29     15 17 49.04 -16 49 25.2  0.00465640825317   0.0013665
 2006-Sep-15 14:09     15 17 49.59 -16 49 27.4  0.00465643017656   0.0013665
 2006-Sep-15 14:49     15 17 50.14 -16 49 29.6  0.00465645209989   0.0013665
 2006-Sep-15 15:29     15 17 50.69 -16 49 31.8  0.00465647402316   0.0013665
 2006-Sep-15 16:09     15 17 51.23 -16 49 33.9  0.00465649594638   0.0013665
 2006-Sep-15 16:49     15 17 51.78 -16 49 36.1  0.00465651786954   0.0013665
 2006-Sep-15 17:29     15 17 52.33 -16 49 38.3  0.00465653979265   0.0013665
 2006-Sep-15 18:09     15 17 52.88 -16 49 40.5  0.00465656171570   0.0013665
 2006-Sep-15 18:49     15 17 53.42 -16 49 42.7  0.00465658363869   0.0013665
 2006-Sep-15 19:29     15 17 53.97 -16 49 44.9  0.00465660556162   0.0013665
 2006-Sep-15 20:09     15 17 54.52 -16 49 47.1  0.00465662748449   0.0013665
 2006-Sep-15 20:49     15 17 55.07 -16 49 49.3  0.00465664940731   0.0013665
 2006-Sep-15 21:29     15 17 55.61 -16 49 51.5  0.00465667133006   0.0013665
 2006-Sep-15 22:09     15 17 56.16 -16 49 53.7  0.00465669325276   0.0013665
 2006-Sep-15 22:49     15 17 56.71 -16 49 55.9  0.00465671517539   0.0013665
 2006-Sep-15 23:29     15 17 57.26 -16 49 58.1  0.00465673709796   0.0013665
 2006-Sep-16 00:09     15 17 57.81 -16 50 00.3  0.00465675902047   0.0013665
 2006-Sep-16 00:49     15 17 58.35 -16 50 02.4  0.00465678094292   0.0013665
 2006-Sep-16 01:29     15 17 58.90 -16 50 04.6  0.00465680286530   0.0013665
 2006-Sep-16 02:09     15 17 59.45 -16 50 06.8  0.00465682478762   0.0013665
 2006-Sep-16 02:49     15 18 00.00 -16 50 09.0  0.00465684670987   0.0013665
 2006-Sep-16 03:29     15 18 00.54 -16 50 11.2  0.00465686863206   0.0013665
 2006-Sep-16 04:09     15 18 01.09 -16 50 13.4  0.00465689055419   0.0013665
 2006-Sep-16 04:49     15 18 01.64 -16 50 15.6  0.00465691247624   0.0013665
 2006-Sep-16 05:29     15 18 02.19 -16 50 17.8  0.00465693439823   0.0013664
 2006-Sep-16 06:09     15 18 02.74 -16 50 20.0  0.00465695632016   0.0013664
 2006-Sep-16 06:49     15 18 03.28 -16 50 22.2  0.00465697824201   0.0013664
 2006-Sep-16 07:29     15 18 03.83 -16 50 24.4  0.00465700016380   0.0013664
 2006-Sep-16 08:09     15 18 04.38 -16 50 26.5  0.00465702208551   0.0013664
 2006-Sep-16 08:49     15 18 04.93 -16 50 28.7  0.00465704400716   0.0013664
 2006-Sep-16 09:29     15 18 05.47 -16 50 30.9  0.00465706592874   0.0013664
 2006-Sep-16 10:09     15 18 06.02 -16 50 33.1  0.00465708785024   0.0013664
 2006-Sep-16 10:49     15 18 06.57 -16 50 35.3  0.00465710977168   0.0013664
 2006-Sep-16 11:29     15 18 07.12 -16 50 37.5  0.00465713169304   0.0013664
 2006-Sep-16 12:09     15 18 07.67 -16 50 39.7  0.00465715361433   0.0013664
 2006-Sep-16 12:49     15 18 08.21 -16 50 41.9  0.00465717553555   0.0013664
 2006-Sep-16 13:29     15 18 08.76 -16 50 44.1  0.00465719745669   0.0013664
 2006-Sep-16 14:09     15 18 09.31 -16 50 46.3  0.00465721937776   0.0013664
 2006-Sep-16 14:49     15 18 09.86 -16 50 48.4  0.00465724129876   0.0013664
 2006-Sep-16 15:29     15 18 10.40 -16 50 50.6  0.00465726321968   0.0013664
